CCSDS_OMM_VERS = 2.0
CREATION_DATE  = 
ORIGINATOR     = 

OBJECT_NAME    = SL-16 R/B
OBJECT_ID      = 1998-043G
CENTER_NAME    = EARTH
REF_FRAME      = TEME
TIME_SYSTEM    = UTC
MEAN_ELEMENT_THEORY = SGP/SGP4

EPOCH          = 2026-01-01T19:05:11.594112
MEAN_MOTION    = 14.26031368
ECCENTRICITY   = .00093544
INCLINATION    = 98.8151
RA_OF_ASC_NODE = 314.7283
ARG_OF_PERICENTER = 203.0681
MEAN_ANOMALY   = 157.0079

EPHEMERIS_TYPE = 0
CLASSIFICATION_TYPE = U
NORAD_CAT_ID   = 25400
ELEMENT_SET_NO = 999
REV_AT_EPOCH   = 42945
BSTAR          = .9297859E-4
MEAN_MOTION_DOT = .177E-5
MEAN_MOTION_DDOT = 0

CCSDS_OMM_VERS = 2.0
CREATION_DATE  = 
ORIGINATOR     = 

OBJECT_NAME    = SL-16 R/B
OBJECT_ID      = 1998-045B
CENTER_NAME    = EARTH
REF_FRAME      = TEME
TIME_SYSTEM    = UTC
MEAN_ELEMENT_THEORY = SGP/SGP4

EPOCH          = 2026-01-01T23:10:59.682720
MEAN_MOTION    = 14.16181759
ECCENTRICITY   = .00056437
INCLINATION    = 71.0127
RA_OF_ASC_NODE = 321.8908
ARG_OF_PERICENTER = 142.5508
MEAN_ANOMALY   = 217.6010

EPHEMERIS_TYPE = 0
CLASSIFICATION_TYPE = U
NORAD_CAT_ID   = 25407
ELEMENT_SET_NO = 999
REV_AT_EPOCH   = 41765
BSTAR          = .20711768E-4
MEAN_MOTION_DOT = -.7E-7
MEAN_MOTION_DDOT = 0

CCSDS_OMM_VERS = 2.0
CREATION_DATE  = 
ORIGINATOR     = 

OBJECT_NAME    = ISS (ZARYA)
OBJECT_ID      = 1998-067A
CENTER_NAME    = EARTH
REF_FRAME      = TEME
TIME_SYSTEM    = UTC
MEAN_ELEMENT_THEORY = SGP/SGP4

EPOCH          = 2026-01-01T18:58:54.170400
MEAN_MOTION    = 15.49013666
ECCENTRICITY   = .00075024
INCLINATION    = 51.6329
RA_OF_ASC_NODE = 43.1850
ARG_OF_PERICENTER = 328.5908
MEAN_ANOMALY   = 31.4631

EPHEMERIS_TYPE = 0
CLASSIFICATION_TYPE = U
NORAD_CAT_ID   = 25544
ELEMENT_SET_NO = 999
REV_AT_EPOCH   = 54596
BSTAR          = .2633784E-3
MEAN_MOTION_DOT = .14103E-3
MEAN_MOTION_DDOT = 0

CCSDS_OMM_VERS = 2.0
CREATION_DATE  = 
ORIGINATOR     = 

OBJECT_NAME    = CZ-4B R/B
OBJECT_ID      = 1999-025C
CENTER_NAME    = EARTH
REF_FRAME      = TEME
TIME_SYSTEM    = UTC
MEAN_ELEMENT_THEORY = SGP/SGP4

EPOCH          = 2026-01-01T23:56:20.151744
MEAN_MOTION    = 14.18249263
ECCENTRICITY   = .00372229
INCLINATION    = 98.6739
RA_OF_ASC_NODE = 47.8214
ARG_OF_PERICENTER = 175.2876
MEAN_ANOMALY   = 248.9274

EPHEMERIS_TYPE = 0
CLASSIFICATION_TYPE = U
NORAD_CAT_ID   = 25732
ELEMENT_SET_NO = 999
REV_AT_EPOCH   = 37871
BSTAR          = .88979811E-4
MEAN_MOTION_DOT = .141E-5
MEAN_MOTION_DDOT = 0

CCSDS_OMM_VERS = 2.0
CREATION_DATE  = 
ORIGINATOR     = 

OBJECT_NAME    = OKEAN-O
OBJECT_ID      = 1999-039A
CENTER_NAME    = EARTH
REF_FRAME      = TEME
TIME_SYSTEM    = UTC
MEAN_ELEMENT_THEORY = SGP/SGP4

EPOCH          = 2026-01-01T17:33:40.360032
MEAN_MOTION    = 14.80202605
ECCENTRICITY   = .00013265
INCLINATION    = 97.9575
RA_OF_ASC_NODE = 62.2580
ARG_OF_PERICENTER = 114.0652
MEAN_ANOMALY   = 246.0699

EPHEMERIS_TYPE = 0
CLASSIFICATION_TYPE = U
NORAD_CAT_ID   = 25860
ELEMENT_SET_NO = 999
REV_AT_EPOCH   = 42448
BSTAR          = .20921312E-3
MEAN_MOTION_DOT = .1538E-4
MEAN_MOTION_DDOT = 0

CCSDS_OMM_VERS = 2.0
CREATION_DATE  = 
ORIGINATOR     = 

OBJECT_NAME    = SL-16 R/B
OBJECT_ID      = 1999-039B
CENTER_NAME    = EARTH
REF_FRAME      = TEME
TIME_SYSTEM    = UTC
MEAN_ELEMENT_THEORY = SGP/SGP4

EPOCH          = 2026-01-01T16:58:59.692512
MEAN_MOTION    = 14.81621325
ECCENTRICITY   = .00160456
INCLINATION    = 98.0097
RA_OF_ASC_NODE = 60.8574
ARG_OF_PERICENTER = 112.9742
MEAN_ANOMALY   = 247.3165

EPHEMERIS_TYPE = 0
CLASSIFICATION_TYPE = U
NORAD_CAT_ID   = 25861
ELEMENT_SET_NO = 999
REV_AT_EPOCH   = 42694
BSTAR          = .16886414E-3
MEAN_MOTION_DOT = .1276E-4
MEAN_MOTION_DDOT = 0

CCSDS_OMM_VERS = 2.0
CREATION_DATE  = 
ORIGINATOR     = 

OBJECT_NAME    = DELTA 2 R/B
OBJECT_ID      = 1999-041E
CENTER_NAME    = EARTH
REF_FRAME      = TEME
TIME_SYSTEM    = UTC
MEAN_ELEMENT_THEORY = SGP/SGP4

EPOCH          = 2026-01-01T23:08:49.825248
MEAN_MOTION    = 14.11475694
ECCENTRICITY   = .05041927
INCLINATION    = 51.7594
RA_OF_ASC_NODE = 207.7076
ARG_OF_PERICENTER = 151.3782
MEAN_ANOMALY   = 211.5842

EPHEMERIS_TYPE = 0
CLASSIFICATION_TYPE = U
NORAD_CAT_ID   = 25876
ELEMENT_SET_NO = 999
REV_AT_EPOCH   = 35360
BSTAR          = .52636678E-3
MEAN_MOTION_DOT = .3038E-4
MEAN_MOTION_DDOT = 0

CCSDS_OMM_VERS = 2.0
CREATION_DATE  = 
ORIGINATOR     = 

OBJECT_NAME    = HELIOS 1B
OBJECT_ID      = 1999-064A
CENTER_NAME    = EARTH
REF_FRAME      = TEME
TIME_SYSTEM    = UTC
MEAN_ELEMENT_THEORY = SGP/SGP4

EPOCH          = 2026-01-01T17:12:38.321280
MEAN_MOTION    = 14.87378822
ECCENTRICITY   = .00004819
INCLINATION    = 98.1754
RA_OF_ASC_NODE = 261.9754
ARG_OF_PERICENTER = 38.6361
MEAN_ANOMALY   = 321.4889

EPHEMERIS_TYPE = 0
CLASSIFICATION_TYPE = U
NORAD_CAT_ID   = 25977
ELEMENT_SET_NO = 999
REV_AT_EPOCH   = 67530
BSTAR          = .46521502E-3
MEAN_MOTION_DOT = .4148E-4
MEAN_MOTION_DDOT = 0

CCSDS_OMM_VERS = 2.0
CREATION_DATE  = 
ORIGINATOR     = 

OBJECT_NAME    = TERRA
OBJECT_ID      = 1999-068A
CENTER_NAME    = EARTH
REF_FRAME      = TEME
TIME_SYSTEM    = UTC
MEAN_ELEMENT_THEORY = SGP/SGP4

EPOCH          = 2026-01-01T22:27:41.938848
MEAN_MOTION    = 14.60928766
ECCENTRICITY   = .00031331
INCLINATION    = 97.9720
RA_OF_ASC_NODE = 57.8763
ARG_OF_PERICENTER = 53.5206
MEAN_ANOMALY   = 351.1019

EPHEMERIS_TYPE = 0
CLASSIFICATION_TYPE = U
NORAD_CAT_ID   = 25994
ELEMENT_SET_NO = 999
REV_AT_EPOCH   = 38533
BSTAR          = .19561908E-3
MEAN_MOTION_DOT = .913E-5
MEAN_MOTION_DDOT = 0

CCSDS_OMM_VERS = 2.0
CREATION_DATE  = 
ORIGINATOR     = 

OBJECT_NAME    = SL-16 R/B
OBJECT_ID      = 2000-006B
CENTER_NAME    = EARTH
REF_FRAME      = TEME
TIME_SYSTEM    = UTC
MEAN_ELEMENT_THEORY = SGP/SGP4

EPOCH          = 2026-01-01T23:08:12.783840
MEAN_MOTION    = 14.15813874
ECCENTRICITY   = .00187834
INCLINATION    = 71.0015
RA_OF_ASC_NODE = 238.1349
ARG_OF_PERICENTER = 281.4529
MEAN_ANOMALY   = 78.4484

EPHEMERIS_TYPE = 0
CLASSIFICATION_TYPE = U
NORAD_CAT_ID   = 26070
ELEMENT_SET_NO = 999
REV_AT_EPOCH   = 33911
BSTAR          = .174439E-3
MEAN_MOTION_DOT = .296E-5
MEAN_MOTION_DDOT = 0

CCSDS_OMM_VERS = 2.0
CREATION_DATE  = 
ORIGINATOR     = 

OBJECT_NAME    = TITAN 4B R/B
OBJECT_ID      = 2000-047B
CENTER_NAME    = EARTH
REF_FRAME      = TEME
TIME_SYSTEM    = UTC
MEAN_ELEMENT_THEORY = SGP/SGP4

EPOCH          = 2026-01-01T23:04:07.841568
MEAN_MOTION    = 15.08950095
ECCENTRICITY   = .00375728
INCLINATION    = 67.9885
RA_OF_ASC_NODE = 228.0577
ARG_OF_PERICENTER = 119.9908
MEAN_ANOMALY   = 240.4978

EPHEMERIS_TYPE = 0
CLASSIFICATION_TYPE = U
NORAD_CAT_ID   = 26474
ELEMENT_SET_NO = 999
REV_AT_EPOCH   = 38284
BSTAR          = .38688355E-3
MEAN_MOTION_DOT = .6093E-4
MEAN_MOTION_DDOT = 0

CCSDS_OMM_VERS = 2.0
CREATION_DATE  = 
ORIGINATOR     = 

OBJECT_NAME    = ENVISAT
OBJECT_ID      = 2002-009A
CENTER_NAME    = EARTH
REF_FRAME      = TEME
TIME_SYSTEM    = UTC
MEAN_ELEMENT_THEORY = SGP/SGP4

EPOCH          = 2025-12-31T22:48:16.847136
MEAN_MOTION    = 14.39007536
ECCENTRICITY   = .0001107
INCLINATION    = 98.3626
RA_OF_ASC_NODE = 316.2065
ARG_OF_PERICENTER = 88.1807
MEAN_ANOMALY   = 295.1197

EPHEMERIS_TYPE = 0
CLASSIFICATION_TYPE = U
NORAD_CAT_ID   = 27386
ELEMENT_SET_NO = 999
REV_AT_EPOCH   = 24943
BSTAR          = .99422E-4
MEAN_MOTION_DOT = .264E-5
MEAN_MOTION_DDOT = 0

