SL-16 R/B               
1 25400U 98043G   26001.79527308  .00000177  00000+0  92979-4 0  9999
2 25400  98.8151 314.7283 0009354 203.0681 157.0079 14.26031368429451
SL-16 R/B               
1 25407U 98045B   26001.96596855 -.00000007  00000+0  20712-4 0  9999
2 25407  71.0127 321.8908 0005643 142.5508 217.6010 14.16181759417655
ISS (ZARYA)             
1 25544U 98067A   26001.79090475  .00014103  00000+0  26338-3 0  9993
2 25544  51.6329  43.1850 0007502 328.5908  31.4631 15.49013666545966
CZ-4B R/B               
1 25732U 99025C   26001.99745546  .00000141  00000+0  88980-4 0  9994
2 25732  98.6739  47.8214 0037222 175.2876 248.9274 14.18249263378713
OKEAN-O                 
1 25860U 99039A   26001.73171713  .00001538  00000+0  20921-3 0  9993
2 25860  97.9575  62.2580 0001326 114.0652 246.0699 14.80202605424485
SL-16 R/B               
1 25861U 99039B   26001.70763533  .00001276  00000+0  16886-3 0  9992
2 25861  98.0097  60.8574 0016045 112.9742 247.3165 14.81621325426945
DELTA 2 R/B             
1 25876U 99041E   26001.96446557  .00003038  00000+0  52637-3 0  9995
2 25876  51.7594 207.7076 0504192 151.3782 211.5842 14.11475694353600
HELIOS 1B               
1 25977U 99064A   26001.71711020  .00004148  00000+0  46522-3 0  9994
2 25977  98.1754 261.9754 0000481  38.6361 321.4889 14.87378822675306
TERRA                   
1 25994U 99068A   26001.93590207  .00000913  00000+0  19562-3 0  9993
2 25994  97.9720  57.8763 0003133  53.5206 351.1019 14.60928766385333
SL-16 R/B               
1 26070U 00006B   26001.96403685  .00000296  00000+0  17444-3 0  9990
2 26070  71.0015 238.1349 0018783 281.4529  78.4484 14.15813874339113
TITAN 4B R/B            
1 26474U 00047B   26001.96120187  .00006093  00000+0  38688-3 0  9990
2 26474  67.9885 228.0577 0037572 119.9908 240.4978 15.08950095382841
ENVISAT                 
1 27386U 02009A   25365.95019499  .00000264  00000+0  99422-4 0  9995
2 27386  98.3626 316.2065 0001107  88.1807 295.1197 14.39007536249430
